NORAD_CAT_ID,OBJECT_NAME,OBJECT_TYPE,EPOCH,MEAN_MOTION,ECCENTRICITY,INCLINATION,RA_OF_ASC_NODE,ARG_OF_PERICENTER,MEAN_ANOMALY,BSTAR,MEAN_MOTION_DOT,MEAN_MOTION_DDOT,TLE_LINE0,TLE_LINE1,TLE_LINE2,SEMIMAJOR_AXIS,PERIOD,APOGEE,PERIGEE,DECAYED
49135.0,STARLINK-3073,PAYLOAD,2024-08-19 11:53:53,14.98333314,0.0002872,69.9985,244.5354,269.079,91.004,-0.00011849,-1.507e-05,0.0,0 STARLINK-3073,1 49135U 21082F   24232.49575647 -.00001507  00000-0 -11849-3 0  9996,2 49135  69.9985 244.5354 0002872 269.0790  91.0040 14.98333314162012,6950.183,96.107,574.044,570.052,0.0
49135.0,STARLINK-3073,PAYLOAD,2024-08-20 10:19:45,14.9833171,0.0003043,69.9981,242.1783,269.4181,90.6629,2.9547e-05,2.6e-06,0.0,0 STARLINK-3073,1 49135U 21082F   24233.43039208  .00000260  00000-0  29547-4 0  9997,2 49135  69.9981 242.1783 0003043 269.4181  90.6629 14.98331710162158,6950.188,96.107,574.168,569.938,0.0
49135.0,STARLINK-3073,PAYLOAD,2024-08-21 03:57:15,14.98321097,0.0002973,69.9985,240.3271,269.1721,90.9097,-1.0747e-05,-2.21e-06,0.0,0 STARLINK-3073,1 49135U 21082F   24234.16476194 -.00000221  00000-0 -10747-4 0  9998,2 49135  69.9985 240.3271 0002973 269.1721  90.9097 14.98321097162263,6950.22,96.108,574.152,570.019,0.0
49135.0,STARLINK-3073,PAYLOAD,2024-08-21 10:21:47,14.98323533,0.0002953,69.9986,239.654,269.184,90.898,1.6832e-05,1.08e-06,0.0,0 STARLINK-3073,1 49135U 21082F   24234.43180095  .00000108  00000-0  16832-4 0  9993,2 49135  69.9986 239.6540 0002953 269.1840  90.8980 14.98323533162306,6950.213,96.107,574.13,570.025,0.0
